625020 (625020),e,4.3146,116.6450,86.7584,2.372904,0.2696396,0.17486361,187.0999,11/21.0/2025,2000,H18.96,0.15
# From MPO751978
625039 (625039),e,3.4089,110.5183,91.1377,2.400981,0.2649239,0.17181456,188.0237,11/21.0/2025,2000,H18.58,0.15
# From MPO751983
625057 (625057),e,4.0021,121.4928,166.0209,2.715772,0.2202238,0.06924197,93.8037,11/21.0/2025,2000,H17.84,0.15
# From MPO751986
625065 (625065),e,3.1283,96.3157,99.5261,2.391052,0.2665757,0.14879880,205.3741,11/21.0/2025,2000,H18.71,0.15
# From MPO751990
625078 (625078),e,4.4578,39.4580,200.1486,2.400817,0.2649510,0.14892685,166.2865,11/21.0/2025,2000,H18.86,0.15
# From MPO892291
625103 (625103),e,1.2931,268.3244,343.6836,2.417533,0.2622077,0.21009132,152.4265,11/21.0/2025,2000,H18.47,0.15
# From MPO752007
625131 (625131),e,2.0695,201.9630,76.1137,2.454228,0.2563490,0.17613296,124.4861,11/21.0/2025,2000,H18.39,0.15
# From MPO752012
625147 (625147),e,3.8982,125.6742,211.4805,2.467303,0.2543140,0.23108656,81.3588,11/21.0/2025,2000,H18.36,0.15
# From MPO752021
625172 (625172),e,1.4529,161.5639,151.8690,2.466233,0.2544796,0.19838332,105.5853,11/21.0/2025,2000,H18.52,0.15
# From MPO752046
625248 (625248),e,13.7145,178.8771,180.9719,2.657720,0.2274785,0.22124420,234.0783,11/21.0/2025,2000,H18.13,0.15
# From MPO752064
625299 (625299),e,11.0840,30.1131,304.9897,3.007228,0.1889968,0.14873037,349.6606,11/21.0/2025,2000,H17.54,0.15
# From MPO752083
625358 (625358),e,1.9723,320.5590,89.2675,3.022422,0.1875735,0.25079596,291.3082,11/21.0/2025,2000,H17.41,0.15
# From MPO752090
625383 (625383),e,2.6128,130.3091,41.7296,2.785284,0.2120313,0.03358341,355.8757,11/21.0/2025,2000,H17.56,0.15
# From MPO752126
625499 (625499),e,6.3114,107.6654,256.6808,2.318264,0.2792286,0.22291379,289.3503,11/21.0/2025,2000,H18.64,0.15
# From MPO752135
625524 (625524),e,2.9323,120.3634,326.3468,3.074557,0.1828228,0.15525869,265.5283,11/21.0/2025,2000,H17.33,0.15
# From MPO752150
625573 (625573),e,6.0748,332.7104,26.0241,2.291065,0.2842156,0.13514660,12.8481,11/21.0/2025,2000,H18.43,0.15
# From MPO752173
625646 (625646),e,8.2326,143.5463,340.0411,1.757418,0.4230499,0.54509201,174.7083,11/21.0/2025,2000,H20.71,0.15
# From MPO752179
625664 (625664),e,3.6053,35.4539,236.4323,2.323037,0.2783684,0.31016214,165.4949,11/21.0/2025,2000,H19.48,0.15
# From MPO752208
625743 (625743),e,5.1555,324.9768,7.4744,2.788599,0.2116532,0.12938059,48.2785,11/21.0/2025,2000,H17.70,0.15
# From MPO752264
625906 (625906),e,3.0120,46.4683,302.6866,2.390120,0.2667317,0.22972242,88.4108,11/21.0/2025,2000,H18.95,0.15
# From MPO752271
625927 (625927),e,9.4787,12.8444,59.9603,2.593668,0.2359567,0.18715256,174.5533,11/21.0/2025,2000,H18.10,0.15
# From MPO752306
626031 (626031),e,1.4543,266.5825,139.3652,2.334977,0.2762359,0.21023654,120.3213,11/21.0/2025,2000,H19.13,0.15
# From MPO752369
626229 (626229),e,2.3576,306.2096,202.6169,2.644024,0.2292482,0.13608609,117.5109,11/21.0/2025,2000,H18.30,0.15
# From MPO752407
626348 (626348),e,5.1933,26.8467,238.5307,2.160797,0.3103009,0.15483635,270.9103,11/21.0/2025,2000,H18.74,0.15
# From MPO752419
626380 (626380),e,2.2261,76.7126,170.2139,2.610195,0.2337194,0.25026738,134.5745,11/21.0/2025,2000,H18.49,0.15
# From MPO752421
626388 (626388),e,4.7911,167.2783,103.5539,2.616647,0.2328555,0.22297202,116.6351,11/21.0/2025,2000,H18.10,0.15
# From MPO752421
626389 (626389),e,31.9718,319.8612,188.5999,2.613954,0.2332153,0.15541611,284.4123,11/21.0/2025,2000,H17.38,0.15
# From MPO752422
626392 (626392),e,7.5978,127.1455,124.6765,2.183494,0.3054752,0.19181056,282.2442,11/21.0/2025,2000,H18.93,0.15
# From MPO752442
626447 (626447),e,2.8521,131.0715,242.3397,2.708387,0.2211251,0.09361779,18.0937,11/21.0/2025,2000,H17.81,0.15
# From MPO752460
626506 (626506),e,3.5786,326.1589,42.8401,2.697283,0.2224920,0.13057944,34.5204,11/21.0/2025,2000,H18.00,0.15
# From MPO752487
626589 (626589),e,3.1433,355.0627,15.2936,2.743111,0.2169396,0.10631973,20.4324,11/21.0/2025,2000,H18.06,0.15
# From MPO752513
626670 (626670),e,13.3018,235.4182,74.4208,2.739836,0.2173288,0.10725280,77.1361,11/21.0/2025,2000,H17.50,0.15
# From MPO752531
626726 (626726),e,1.3077,230.4040,0.1556,2.254188,0.2912185,0.10863185,292.4682,11/21.0/2025,2000,H18.60,0.15
# From MPO752548
626777 (626777),e,3.1381,101.2212,260.7834,2.236773,0.2946261,0.23507042,177.3227,11/21.0/2025,2000,H19.52,0.15
# From MPO752549
626780 (626780),e,8.1808,290.1073,131.2954,3.136268,0.1774534,0.09304291,84.3133,11/21.0/2025,2000,H17.00,0.15
# From MPO752568
626840 (626840),e,7.5269,270.7031,92.4104,2.723767,0.2192549,0.29582472,34.0433,11/21.0/2025,2000,H18.11,0.15
# From MPO752626
627013 (627013),e,4.5002,140.8238,103.4052,2.460223,0.2554127,0.19524486,152.8207,11/21.0/2025,2000,H18.38,0.15
# From MPO752634
627038 (627038),e,28.9996,18.8854,289.8039,5.161412,0.0840526,0.00973253,68.1006,11/21.0/2025,2000,H14.20,0.15
# From MPO752639
627056 (627056),e,1.4789,204.6941,246.9434,2.936812,0.1958348,0.07278575,273.9823,11/21.0/2025,2000,H17.33,0.15
# From MPO752672
627157 (627157),e,29.7383,304.8121,281.3717,1.206127,0.7440710,0.27750315,75.6902,11/21.0/2025,2000,H21.50,0.15
# From MPO752690
627215 (627215),e,6.7327,320.0797,9.0843,2.576741,0.2382857,0.16864838,81.4358,11/21.0/2025,2000,H17.96,0.15
# From MPO917881
627232 (627232),e,4.6636,27.6439,323.6314,2.597643,0.2354154,0.19810737,59.0607,11/21.0/2025,2000,H18.27,0.15
# From MPO752698
627239 (627239),e,3.3507,217.0326,143.1842,2.595771,0.2356701,0.16206917,55.0934,11/21.0/2025,2000,H18.02,0.15
# From MPO752698
627241 (627241),e,3.1004,116.3554,230.6667,2.354020,0.2728908,0.23575489,291.2544,11/21.0/2025,2000,H18.19,0.15
# From MPEC 2023-Y06
627244 (627244),e,7.0199,323.5986,348.4094,2.580117,0.2378182,0.15348409,91.4122,11/21.0/2025,2000,H17.96,0.15
# From MPO752715
627294 (627294),e,3.6043,207.1724,183.3418,2.578162,0.2380887,0.13209747,34.4208,11/21.0/2025,2000,H18.54,0.15
# From MPO752715
627295 (627295),e,5.9293,21.6751,331.1971,2.595625,0.2356900,0.19489722,61.7097,11/21.0/2025,2000,H18.27,0.15
# From MPO752716
627297 (627297),e,12.3017,189.0384,170.5907,2.570648,0.2391333,0.18749212,63.9591,11/21.0/2025,2000,H17.68,0.15
# From MPO752731
627347 (627347),e,12.9688,339.7701,310.1681,2.597951,0.2353735,0.17966525,102.8179,11/21.0/2025,2000,H17.72,0.15
# From MPO752738
627371 (627371),e,6.1199,7.8909,327.7011,2.153061,0.3119748,0.26414494,184.1595,11/21.0/2025,2000,H18.95,0.15
# From MPO752767
627462 (627462),e,5.6216,293.0202,176.9826,2.616806,0.2328342,0.09541612,318.1035,11/21.0/2025,2000,H17.81,0.15
# From MPO752768
627468 (627468),e,10.7115,241.9498,246.6186,3.101273,0.1804654,0.27789046,1.5803,11/21.0/2025,2000,H17.57,0.15
# From MPO752771
627477 (627477),e,4.7390,182.0706,186.7547,2.620284,0.2323707,0.18482535,44.4867,11/21.0/2025,2000,H18.11,0.15
# From MPO752801
627565 (627565),e,14.6262,297.8740,20.0463,2.705313,0.2215020,0.11523708,65.9895,11/21.0/2025,2000,H17.64,0.15
# From MPO787023
650031 (650031),e,17.3558,146.5075,266.4783,75.08758,0.0015148,0.51663286,12.6720,11/21.0/2025,2000,H 6.83,0.15
# From MPO788219
652920 (652920),e,42.0886,52.5885,177.6906,202.8089,0.0003413,0.88852878,1.0031,11/21.0/2025,2000,H 8.15,0.15
# From MPO788797
654362 (654362),e,1.7452,113.3827,117.9136,2.373134,0.2696005,0.15747156,262.9836,11/21.0/2025,2000,H18.50,0.15
# From MPEC 2024-GH2
662184 (662184),e,4.6238,49.0142,266.1835,2.663459,0.2267436,0.30129408,256.7953,11/21.0/2025,2000,H18.35,0.15
# From MPO802838
662699 (662699),e,13.6447,186.4921,158.2542,2.666599,0.2263433,0.25043211,158.0618,11/21.0/2025,2000,H17.98,0.15
# From MPO802903
662840 (662840),e,7.2817,208.8637,121.6764,2.668065,0.2261567,0.24629075,171.3507,11/21.0/2025,2000,H17.98,0.15
# From MPO805452
668643 (668643),e,78.0182,341.3930,195.1349,944.6709,0.0000339,0.98464098,0.0000,03/10.3238/2011,2000,H 7.12,0.15
# From MPO805880
669608 (669608),e,19.0034,310.3583,36.4823,1.114100,0.8381420,0.48790170,58.3311,11/21.0/2025,2000,H20.02,0.15
# From MPO805978
669843 (669843),e,8.5434,268.5274,256.1201,30.87693,0.0057445,0.64565480,26.1825,11/21.0/2025,2000,H11.34,0.15
# From MPO806911
671997 (671997),e,6.0115,155.6676,205.3006,2.565304,0.2398810,0.21147988,242.4058,11/21.0/2025,2000,H18.19,0.15
# From MPO892539
672508 (672508),e,3.5777,344.6615,18.6900,68.31750,0.0017454,0.46231967,8.4179,11/21.0/2025,2000,H 7.05,0.15
# From MPO807592
673589 (673589),e,23.5934,172.2336,330.4783,41.43460,0.0036954,0.08552411,16.6329,11/21.0/2025,2000,H 7.86,0.15
# From MPO810207
679655 (679655),e,4.6270,311.9588,90.3009,1.490086,0.5418602,0.74563994,98.1409,11/21.0/2025,2000,H20.11,0.15
# From MPO918152
693096 (693096),e,24.2571,295.4416,135.1924,51.34492,0.0026789,0.25644613,60.3355,11/21.0/2025,2000,H 6.27,0.15
# From MPO929291
695577 (695577),e,9.2895,193.5421,116.6612,3.044912,0.1854991,0.03856590,71.6715,11/21.0/2025,2000,H17.73,0.15
# From MPO823263
696510 (696510),e,3.6515,238.5782,106.6115,2.553310,0.2415733,0.27171709,82.1934,11/21.0/2025,2000,H18.29,0.15
# From MPO823337
696740 (696740),e,7.7780,201.6450,81.6961,2.596258,0.2356038,0.17204354,108.5693,11/21.0/2025,2000,H18.16,0.15
# From MPO831005
700782 (700782),e,4.7640,359.5669,180.7608,3.225860,0.1701123,0.13787502,339.7499,11/21.0/2025,2000,H17.15,0.15
# From MPO834298
709487 (709487),e,98.5570,180.1828,166.3183,1264,0.0000219,0.99333888,0.0000,10/26.3530/2012,2000,H10.88,0.15
# From MPO846680
721420 (721420),e,1.1707,160.9840,112.3090,3.094182,0.1810862,0.15607729,96.6096,11/21.0/2025,2000,H17.41,0.15
# From MPO846801
721688 (721688),e,1.8679,206.6407,316.1787,2.446716,0.2575305,0.11970797,219.6177,11/21.0/2025,2000,H18.57,0.15
# From MPO847761
723929 (723929),e,1.2845,254.6837,101.4057,2.663783,0.2267022,0.10666923,49.6688,11/21.0/2025,2000,H17.91,0.15
# From MPO849905
728840 (728840),e,26.6560,123.6970,210.9592,18.63451,0.0122526,0.32114070,96.6378,11/21.0/2025,2000,H 9.40,0.15
# From MPO863478
743330 (743330),e,0.3130,42.3686,331.5964,3.135011,0.1775601,0.14353358,22.3208,11/21.0/2025,2000,H17.27,0.15
